IRIDIUM 26              
1 24903U 97043A   25302.83907204  .00000639  00000+0  20783-3 0  9996
2 24903  86.3966  54.0059 0002093  87.9443 272.1994 14.37271015476080
IRIDIUM 22              
1 24907U 97043E   25302.88066211  .00000579  00000+0  19236-3 0  9993
2 24907  86.3966  57.6445 0001957  92.1126 268.0295 14.36070555476102
DUMMY MASS 1            
1 24925U 97048A   25302.93446830  .00000729  00000+0  78036-4 0  9994
2 24925  86.3327  72.9735 0008014  43.7125 316.4734 14.87119845525155
DUMMY MASS 2            
1 24926U 97048B   25302.85180765  .00000714  00000+0  76794-4 0  9991
2 24926  86.3324  74.6453 0009109  52.1630 308.0417 14.86870459524912
IRIDIUM 29              
1 24944U 97051A   25302.92472358  .00000722  00000+0  23895-3 0  9997
2 24944  86.3919  87.3413 0001985  96.4327 263.7097 14.36597240472616
IRIDIUM 33              
1 24946U 97051C   25302.84641280  .00000534  00000+0  18081-3 0  9994
2 24946  86.3834  86.6467 0008040  13.6818 346.4594 14.34987246472056
IRIDIUM 28              
1 24948U 97051E   25302.95240176  .00000661  00000+0  21443-3 0  9994
2 24948  86.3926  84.7666 0002125  76.3037 283.8397 14.37502132473200
IRIDIUM 36              
1 24967U 97056C   25302.89459582  .00000626  00000+0  20161-3 0  9993
2 24967  86.3925 116.4252 0001907  83.0826 277.0589 14.37722061471573
